ONEWEB-0267             
1 48985U 21060U   24202.47664152  .00000019  00000+0  16748-4 0  9997
2 48985  87.9112   7.4778 0001832  79.1876 280.9461 13.16594151147917
ONEWEB-0270             
1 48988U 21060X   24202.51939049  .00000106  00000+0  24358-3 0  9997
2 48988  87.9111   7.4834 0001500  74.8276 285.3021 13.16594696147993
ONEWEB-0271             
1 48989U 21060Y   24202.50671978  .00000084  00000+0  18677-3 0  9993
2 48989  87.9111   7.4629 0001749  79.7640 280.3688 13.16594276147998
ONEWEB-0273             
1 48991U 21060AA  24202.47505568  .00000001  00000+0 -32034-4 0  9997
2 48991  87.9112   7.4848 0001623  88.7380 271.3937 13.16593779147913
ONEWEB-0274             
1 48992U 21060AB  24202.50039132  .00000025  00000+0  31513-4 0  9997
2 48992  87.9119   7.4956 0002287  84.0203 276.1189 13.16594190147955
